NORAD_CAT_ID,OBJECT_NAME,OBJECT_TYPE,EPOCH,MEAN_MOTION,ECCENTRICITY,INCLINATION,RA_OF_ASC_NODE,ARG_OF_PERICENTER,MEAN_ANOMALY,BSTAR,MEAN_MOTION_DOT,MEAN_MOTION_DDOT,TLE_LINE0,TLE_LINE1,TLE_LINE2,SEMIMAJOR_AXIS,PERIOD,APOGEE,PERIGEE,DECAYED
53002.0,STARLINK-4121,PAYLOAD,2023-09-26 20:21:57,15.08832033,0.0001378,53.2157,151.2185,105.6496,254.4648,-0.00019828,-3.441e-05,0.0,0 STARLINK-4121,1 53002U 22076S   23269.84857774 -.00003441  00000-0 -19828-3 0  9994,2 53002  53.2157 151.2185 0001378 105.6496 254.4648 15.08832033 68222,6917.905,95.438,540.723,538.816,0.0
53002.0,STARLINK-4121,PAYLOAD,2023-09-27 09:05:02,15.08824676,0.0001556,53.2169,148.839,87.3783,272.7387,-6.9161e-05,-1.388e-05,0.0,0 STARLINK-4121,1 53002U 22076S   23270.37850621 -.00001388  00000-0 -69161-4 0  9992,2 53002  53.2169 148.8390 0001556  87.3783 272.7387 15.08824676 67831,6917.927,95.439,540.869,538.716,0.0
53002.0,STARLINK-4121,PAYLOAD,2023-09-28 00:58:54,15.08831666,0.0001634,53.2167,145.8649,98.3196,261.7981,0.00028667,4.276e-05,0.0,0 STARLINK-4121,1 53002U 22076S   23271.04091197  .00004276  00000-0  28667-3 0  9994,2 53002  53.2167 145.8649 0001634  98.3196 261.7981 15.08831666 68409,6917.906,95.438,540.901,538.64,0.0
53002.0,STARLINK-4121,PAYLOAD,2023-09-28 21:38:55,15.08846318,0.0001586,53.2165,141.9994,88.5027,271.6146,0.00047082,7.214e-05,0.0,0 STARLINK-4121,1 53002U 22076S   23271.90203114  .00007214  00000-0  47082-3 0  9990,2 53002  53.2165 141.9994 0001586  88.5027 271.6146 15.08846318 68062,6917.861,95.437,540.823,538.629,0.0
53002.0,STARLINK-4121,PAYLOAD,2023-09-29 00:49:41,15.08850221,0.0001599,53.2165,141.4041,88.0856,272.0319,0.00052028,8.004e-05,0.0,0 STARLINK-4121,1 53002U 22076S   23272.03450988  .00008004  00000-0  52028-3 0  9992,2 53002  53.2165 141.4041 0001599  88.0856 272.0319 15.08850221 68558,6917.849,95.437,540.82,538.608,0.0
53002.0,STARLINK-4121,PAYLOAD,2023-09-29 19:54:18,15.08857284,0.0001583,53.2159,137.8359,86.6237,273.4936,0.0004024,6.125e-05,0.0,0 STARLINK-4121,1 53002U 22076S   23272.82938360  .00006125  00000-0  40240-3 0  9999,2 53002  53.2159 137.8359 0001583  86.6237 273.4936 15.08857284 68200,6917.828,95.436,540.788,538.597,0.0
53002.0,STARLINK-4121,PAYLOAD,2023-09-30 08:37:23,15.08845543,0.0001611,53.2158,135.4577,80.198,279.9194,3.9164e-05,3.35e-06,0.0,0 STARLINK-4121,1 53002U 22076S   23273.35930430  .00000335  00000-0  39164-4 0  9999,2 53002  53.2158 135.4577 0001611  80.1980 279.9194 15.08845543 68753,6917.863,95.437,540.843,538.614,0.0
53002.0,STARLINK-4121,PAYLOAD,2023-10-01 00:31:15,15.08836239,0.0001623,53.2172,132.482,89.7905,270.3273,-7.4153e-05,-1.468e-05,0.0,0 STARLINK-4121,1 53002U 22076S   23274.02170901 -.00001468  00000-0 -74153-4 0  9990,2 53002  53.2172 132.4820 0001623  89.7905 270.3273 15.08836239 68858,6917.892,95.438,540.88,538.634,0.0
53002.0,STARLINK-4121,PAYLOAD,2023-10-01 18:00:29,15.08855122,0.0001418,53.2168,129.2129,87.6664,272.449,0.00013939,1.932e-05,0.0,0 STARLINK-4121,1 53002U 22076S   23274.75034003  .00001932  00000-0  13939-3 0  9990,2 53002  53.2168 129.2129 0001418  87.6664 272.4490 15.08855122 68968,6917.834,95.437,540.68,538.718,0.0
53002.0,STARLINK-4121,PAYLOAD,2023-10-01 21:11:15,15.08859093,0.000139,53.2163,128.6182,84.3405,275.7746,0.00038625,5.868e-05,0.0,0 STARLINK-4121,1 53002U 22076S   23274.88281960  .00005868  00000-0  38625-3 0  9991,2 53002  53.2163 128.6182 0001390  84.3405 275.7746 15.08859093 68513,6917.822,95.436,540.649,538.725,0.0
53002.0,STARLINK-4121,PAYLOAD,2023-10-02 01:57:24,15.08869394,0.0001429,53.2161,127.7259,80.7112,279.4041,0.0010135,0.00015892,0.0,0 STARLINK-4121,1 53002U 22076S   23275.08153935  .00015892  00000-0  10135-2 0  9997,2 53002  53.2161 127.7259 0001429  80.7112 279.4041 15.08869394 69014,6917.791,95.436,540.644,538.667,0.0
53002.0,STARLINK-4121,PAYLOAD,2023-10-02 21:02:02,15.08852108,0.0001295,53.2154,124.158,89.0126,271.1015,0.00063071,9.767e-05,0.0,0 STARLINK-4121,1 53002U 22076S   23275.87642152  .00009767  00000-0  63071-3 0  9990,2 53002  53.2154 124.1580 0001295  89.0126 271.1015 15.08852108 69130,6917.843,95.437,540.604,538.813,0.0
53002.0,STARLINK-4121,PAYLOAD,2023-10-03 06:34:21,15.08836106,0.0001337,53.2155,122.3729,84.1198,275.9947,0.0012371,0.00019453,0.0,0 STARLINK-4121,1 53002U 22076S   23276.27386329  .00019453  00000-0  12371-2 0  9995,2 53002  53.2155 122.3729 0001337  84.1198 275.9947 15.08836106 69190,6917.892,95.438,540.682,538.832,0.0
53002.0,STARLINK-4121,PAYLOAD,2023-10-03 20:52:50,15.0883322,0.0001421,53.2159,119.6986,96.6875,263.4279,0.00047805,7.327e-05,0.0,0 STARLINK-4121,1 53002U 22076S   23276.87002839  .00007327  00000-0  47805-3 0  9990,2 53002  53.2159 119.6986 0001421  96.6875 263.4279 15.08833220 69286,6917.901,95.438,540.749,538.783,0.0
53002.0,STARLINK-4121,PAYLOAD,2023-10-04 00:03:36,15.08831561,0.0001374,53.2157,119.1026,89.44,270.675,0.00018369,2.636e-05,0.0,0 STARLINK-4121,1 53002U 22076S   23277.00250899  .00002636  00000-0  18369-3 0  9998,2 53002  53.2157 119.1026 0001374  89.4400 270.6750 15.08831561 68835,6917.906,95.438,540.722,538.821,0.0
53002.0,STARLINK-4121,PAYLOAD,2023-10-04 20:43:36,15.08851842,0.0001314,53.2158,115.237,89.5184,270.5959,0.00033977,5.125e-05,0.0,0 STARLINK-4121,1 53002U 22076S   23277.86362264  .00005125  00000-0  33977-3 0  9990,2 53002  53.2158 115.2370 0001314  89.5184 270.5959 15.08851842 68967,6917.844,95.437,540.618,538.8,0.0
53002.0,STARLINK-4121,PAYLOAD,2023-10-04 23:54:23,15.08855272,0.000131,53.2156,114.6421,89.3586,270.7556,0.00045642,6.986e-05,0.0,0 STARLINK-4121,1 53002U 22076S   23277.99610137  .00006986  00000-0  45642-3 0  9997,2 53002  53.2156 114.6421 0001310  89.3586 270.7556 15.08855272 69456,6917.834,95.437,540.605,538.792,0.0
53002.0,STARLINK-4121,PAYLOAD,2023-10-05 06:15:55,15.08842273,9.96e-05,53.2156,113.4524,88.5933,271.5173,0.0001212,1.642e-05,0.0,0 STARLINK-4121,1 53002U 22076S   23278.26106407  .00001642  00000-0  12120-3 0  9997,2 53002  53.2156 113.4524 0000996  88.5933 271.5173 15.08842273 69498,6917.873,95.437,540.427,539.049,0.0
53002.0,STARLINK-4121,PAYLOAD,2023-10-05 12:37:28,15.08840765,0.0002053,53.2152,112.2618,84.1475,275.9752,0.00010412,1.369e-05,0.0,0 STARLINK-4121,1 53002U 22076S   23278.52602881  .00001369  00000-0  10412-3 0  9991,2 53002  53.2152 112.2618 0002053  84.1475 275.9752 15.08840765 69062,6917.878,95.438,541.163,538.323,0.0
53002.0,STARLINK-4121,PAYLOAD,2023-10-05 20:34:24,15.08843571,0.0001487,53.2158,110.7772,84.7246,275.3916,0.00017745,2.538e-05,0.0,0 STARLINK-4121,1 53002U 22076S   23278.85722735  .00002538  00000-0  17745-3 0  9993,2 53002  53.2158 110.7772 0001487  84.7246 275.3916 15.08843571 69114,6917.869,95.437,540.763,538.706,0.0
53002.0,STARLINK-4121,PAYLOAD,2023-10-06 12:28:16,15.0883996,0.000157,53.2154,107.8041,83.5459,276.5711,0.00026646,3.955e-05,0.0,0 STARLINK-4121,1 53002U 22076S   23279.51963053  .00003955  00000-0  26646-3 0  9991,2 53002  53.2154 107.8041 0001570  83.5459 276.5711 15.08839960 69216,6917.881,95.438,540.832,538.659,0.0
53002.0,STARLINK-4121,PAYLOAD,2023-10-06 20:25:11,15.08843014,0.0001524,53.2154,106.3175,84.1134,276.0032,0.00026901,3.996e-05,0.0,0 STARLINK-4121,1 53002U 22076S   23279.85083047  .00003996  00000-0  26901-3 0  9993,2 53002  53.2154 106.3175 0001524  84.1134 276.0032 15.08843014 69737,6917.871,95.437,540.79,538.682,0.0
53002.0,STARLINK-4121,PAYLOAD,2023-10-07 05:57:30,15.08838476,0.0001593,53.2152,104.5331,82.8011,277.3162,0.00021163,3.082e-05,0.0,0 STARLINK-4121,1 53002U 22076S   23280.24827334  .00003082  00000-0  21163-3 0  9994,2 53002  53.2152 104.5331 0001593  82.8011 277.3162 15.08838476 69794,6917.885,95.438,540.852,538.648,0.0
53002.0,STARLINK-4121,PAYLOAD,2023-10-07 12:19:03,15.08841179,0.0001613,53.2153,103.3434,82.2037,277.9138,0.00024662,3.639e-05,0.0,0 STARLINK-4121,1 53002U 22076S   23280.51323339  .00003639  00000-0  24662-3 0  9995,2 53002  53.2153 103.3434 0001613  82.2037 277.9138 15.08841179 69367,6917.877,95.437,540.858,538.626,0.0
53002.0,STARLINK-4121,PAYLOAD,2023-10-07 18:40:35,15.08843456,0.0001554,53.2151,102.1538,83.4573,276.6596,0.00026183,3.882e-05,0.0,0 STARLINK-4121,1 53002U 22076S   23280.77819249  .00003882  00000-0  26183-3 0  9993,2 53002  53.2151 102.1538 0001554  83.4573 276.6596 15.08843456 69408,6917.87,95.437,540.81,538.66,0.0
53002.0,STARLINK-4121,PAYLOAD,2023-10-08 12:09:50,15.08845744,0.0001523,53.2151,98.8819,84.8554,275.2612,0.00020981,3.053e-05,0.0,0 STARLINK-4121,1 53002U 22076S   23281.50683090  .00003053  00000-0  20981-3 0  9998,2 53002  53.2151  98.8819 0001523  84.8554 275.2612 15.08845744 69519,6917.863,95.437,540.781,538.674,0.0
53002.0,STARLINK-4121,PAYLOAD,2023-10-08 18:31:22,15.08848166,0.000146,53.2163,97.6922,90.898,269.2179,0.00019271,2.781e-05,0.0,0 STARLINK-4121,1 53002U 22076S   23281.77178866  .00002781  00000-0  19271-3 0  9994,2 53002  53.2163  97.6922 0001460  90.8980 269.2179 15.08848166 70024,6917.855,95.437,540.73,538.71,0.0
53002.0,STARLINK-4121,PAYLOAD,2023-10-09 12:00:37,15.08840998,0.0001422,53.2156,94.4211,82.9723,277.1431,9.1197e-05,1.164e-05,0.0,0 STARLINK-4121,1 53002U 22076S   23282.50043232  .00001164  00000-0  91197-4 0  9996,2 53002  53.2156  94.4211 0001422  82.9723 277.1431 15.08840998 69669,6917.877,95.437,540.726,538.759,0.0
53002.0,STARLINK-4121,PAYLOAD,2023-10-09 18:22:09,15.08843421,0.00014,53.2159,93.232,88.836,271.2793,8.9948e-05,1.144e-05,0.0,0 STARLINK-4121,1 53002U 22076S   23282.76539039  .00001144  00000-0  89948-4 0  9998,2 53002  53.2159  93.2320 0001400  88.8360 271.2793 15.08843421 70176,6917.87,95.437,540.703,538.766,0.0
53002.0,STARLINK-4121,PAYLOAD,2023-10-09 21:32:55,15.08845906,0.0001364,53.2161,92.6368,89.4527,270.6621,0.00012385,1.684e-05,0.0,0 STARLINK-4121,1 53002U 22076S   23282.89786901  .00001684  00000-0  12385-3 0  9993,2 53002  53.2161  92.6368 0001364  89.4527 270.6621 15.08845906 69727,6917.862,95.437,540.671,538.784,0.0
